LEMUR-2-LEIA-PHILIP     
1 63246U 25052AN  26200.68069477  .00000062  00000+0  10245-4 0  9995
2 63246  97.6792  92.0799 0005043 110.2054 249.9711 14.97392896 73533
LEMUR-2-LIA-MARTIN      
1 63248U 25052AQ  26200.94049572  .00001299  00000+0  11482-3 0  9996
2 63248  97.6851  92.8622 0004972  78.1562 282.0218 14.98045693 73586
LEMUR-2-DELOITTE-1      
1 63259U 25052BB  26201.12214617  .00002467  00000+0  21493-3 0  9994
2 63259  97.6886  93.3710 0002532  57.5042 302.6425 14.97806554 73628
LEMUR-2-EMERSONROSE     
1 63261U 25052BD  26201.19810831  .00002273  00000+0  19089-3 0  9997
2 63261  97.6884  94.0706 0002419  48.0369 312.1060 14.99315368 73680
LEMUR-2-MARACHE-FRAN    
1 63262U 25052BE  26200.95064577  .00001639  00000+0  13539-3 0  9998
2 63262  97.6816  94.1976 0005764 233.5753 126.4939 15.00331698 73677
LEMUR-2-THEFALCONER     
1 63264U 25052BG  26200.68562886  .00001095  00000+0  98723-4 0  9991
2 63264  97.6815  92.5267 0000640 226.4008 133.7162 14.97573199 73550
LEMUR-2-UNTITLED-SC     
1 63351U 25061A   26200.87953666  .00001804  00000+0  10358-3 0  9994
2 63351  97.5661 176.0110 0019630 147.4932 212.7513 15.13663233 72530
LEMUR-2-ESPERANZA       
1 63352U 25061B   26200.92064474  .00001721  00000+0  98736-4 0  9996
2 63352  97.5667 176.1531 0019268 146.7405 213.5042 15.13769438 72540
LEMUR-2-KREMPEL-BRO2    
1 63353U 25061C   26200.87220164  .00001876  00000+0  10595-3 0  9998
2 63353  97.5712 176.6800 0020395 139.8605 220.4138 15.14196674 72555
LEMUR-2-THERMORAPTOR    
1 63354U 25061D   26200.91858274  .00001859  00000+0  10482-3 0  9999
2 63354  97.5719 176.8081 0020111 138.6783 221.5975 15.14279945 72561
LEMUR-2-NEUROSPICY      
1 63355U 25061E   26200.88772661  .00001877  00000+0  10554-3 0  9991
2 63355  97.5647 176.3783 0017877 141.5649 218.6860 15.14398618 72564
LEMUR-2-TILLINFINITY    
1 63356U 25061F   26201.24063460  .00002112  00000+0  11630-3 0  9992
2 63356  97.5632 177.0428 0019396 129.5348 230.7602 15.14985861 72643
LEMUR-2-KREMPEL-BRO1    
1 63357U 25061G   26200.88804064  .00001884  00000+0  10470-3 0  9991
2 63357  97.5633 176.5989 0020022 132.0054 228.2886 15.14789895 72580
LEMUR-2-LANGER2SPACE    
1 63358U 25061H   26200.92111537  .00001861  00000+0  10446-3 0  9991
2 63358  97.5637 176.4326 0017802 139.8593 220.3958 15.14483460 72575
LEMUR-2-BALTO           
1 63395U 25052BH  26201.13491297  .00002260  00000+0  18461-3 0  9999
2 63395  97.6918  94.3745 0004972 305.9171  54.1591 15.00387609 73709
LEMUR-2-KRISH           
1 64561U 25135AK  26201.04160078  .00002167  00000+0  19607-3 0  9996
2 64561  97.7763 315.7010 0001126 106.1381 253.9965 14.96467316 58830
